{
  "type": "FeatureCollection",
  "features": [
    {
      "type": "Feature",
      "properties": {
        "norad_id": 38250,
        "name": "BEIDOU-2 M3 (C11)",
        "group": "beidou",
        "lat": -16.761216462501633,
        "lon": 142.84719184568226,
        "alt_km": 21511.6600489422,
        "timestamp": "2025-12-14T05:42:18.724797+00:00",
        "meta_object_name": "BEIDOU-2 M3 (C11)",
        "meta_object_id": "2012-018A",
        "meta_epoch": "2025-12-12T20:44:25.859616",
        "meta_mean_motion": 1.86229754,
        "meta_eccentricity": 0.00243187,
        "meta_inclination": 55.9198,
        "meta_ra_of_asc_node": 311.1526,
        "meta_arg_of_pericenter": 274.2431,
        "meta_mean_anomaly": 85.469,
        "meta_ephemeris_type": 0,
        "meta_classification_type": "U",
        "meta_norad_cat_id": 38250,
        "meta_element_set_no": 999,
        "meta_rev_at_epoch": 9247,
        "meta_bstar": 0,
        "meta_mean_motion_dot": -9.2e-07,
        "meta_mean_motion_ddot": 0,
        "tle_line1": "1 38250U 12018A   25346.86418819 -.00000092  00000+0  00000+0 0  9995",
        "tle_line2": "2 38250  55.9198 311.1526 0024318 274.2431  85.4690  1.86229754 92475"
      },
      "geometry": {
        "type": "Point",
        "coordinates": [
          142.84719184568226,
          -16.761216462501633
        ]
      }
    },
    {
      "type": "Feature",
      "properties": {
        "norad_id": 38251,
        "name": "BEIDOU-2 M4 (C12)",
        "group": "beidou",
        "lat": -49.189908911087244,
        "lon": -177.82193333777627,
        "alt_km": 21496.81083219624,
        "timestamp": "2025-12-14T05:42:18.724809+00:00",
        "meta_object_name": "BEIDOU-2 M4 (C12)",
        "meta_object_id": "2012-018B",
        "meta_epoch": "2025-12-13T07:59:48.422112",
        "meta_mean_motion": 1.86229462,
        "meta_eccentricity": 0.00154528,
        "meta_inclination": 55.8208,
        "meta_ra_of_asc_node": 310.3658,
        "meta_arg_of_pericenter": 277.4494,
        "meta_mean_anomaly": 82.3644,
        "meta_ephemeris_type": 0,
        "meta_classification_type": "U",
        "meta_norad_cat_id": 38251,
        "meta_element_set_no": 999,
        "meta_rev_at_epoch": 9248,
        "meta_bstar": 0,
        "meta_mean_motion_dot": -9.5e-07,
        "meta_mean_motion_ddot": 0,
        "tle_line1": "1 38251U 12018B   25347.33319933 -.00000095  00000+0  00000+0 0  9999",
        "tle_line2": "2 38251  55.8208 310.3658 0015452 277.4494  82.3644  1.86229462 92489"
      },
      "geometry": {
        "type": "Point",
        "coordinates": [
          -177.82193333777627,
          -49.189908911087244
        ]
      }
    },
    {
      "type": "Feature",
      "properties": {
        "norad_id": 38775,
        "name": "BEIDOU-2 M6 (C14)",
        "group": "beidou",
        "lat": 55.20477950241357,
        "lon": 141.9907556552962,
        "alt_km": 21524.748699213276,
        "timestamp": "2025-12-14T05:42:18.724821+00:00",
        "meta_object_name": "BEIDOU-2 M6 (C14)",
        "meta_object_id": "2012-050B",
        "meta_epoch": "2025-12-11T10:23:51.015840",
        "meta_mean_motion": 1.86230797,
        "meta_eccentricity": 0.00111593,
        "meta_inclination": 56.3773,
        "meta_ra_of_asc_node": 69.1107,
        "meta_arg_of_pericenter": 344.6089,
        "meta_mean_anomaly": 15.3783,
        "meta_ephemeris_type": 0,
        "meta_classification_type": "U",
        "meta_norad_cat_id": 38775,
        "meta_element_set_no": 999,
        "meta_rev_at_epoch": 8981,
        "meta_bstar": 0,
        "meta_mean_motion_dot": -6.3e-07,
        "meta_mean_motion_ddot": 0,
        "tle_line1": "1 38775U 12050B   25345.43322935 -.00000063  00000+0  00000+0 0  9996",
        "tle_line2": "2 38775  56.3773  69.1107 0011159 344.6089  15.3783  1.86230797 89814"
      },
      "geometry": {
        "type": "Point",
        "coordinates": [
          141.9907556552962,
          55.20477950241357
        ]
      }
    },
    {
      "type": "Feature",
      "properties": {
        "norad_id": 38953,
        "name": "BEIDOU-2 G6 (C02)",
        "group": "beidou",
        "lat": 0.1752499057809809,
        "lon": -107.34467367068486,
        "alt_km": 35799.5527820426,
        "timestamp": "2025-12-14T05:42:18.724840+00:00",
        "meta_object_name": "BEIDOU-2 G6 (C02)",
        "meta_object_id": "2012-059A",
        "meta_epoch": "2025-12-13T15:33:46.118880",
        "meta_mean_motion": 1.00269636,
        "meta_eccentricity": 0.00078758,
        "meta_inclination": 3.9519,
        "meta_ra_of_asc_node": 75.4972,
        "meta_arg_of_pericenter": 289.8907,
        "meta_mean_anomaly": 34.6349,
        "meta_ephemeris_type": 0,
        "meta_classification_type": "U",
        "meta_norad_cat_id": 38953,
        "meta_element_set_no": 999,
        "meta_rev_at_epoch": 4804,
        "meta_bstar": 0,
        "meta_mean_motion_dot": -1.61e-06,
        "meta_mean_motion_ddot": 0,
        "tle_line1": "1 38953U 12059A   25347.64845045 -.00000161  00000+0  00000+0 0  9999",
        "tle_line2": "2 38953   3.9519  75.4972 0007875 289.8907  34.6349  1.00269636 48049"
      },
      "geometry": {
        "type": "Point",
        "coordinates": [
          -107.34467367068486,
          0.1752499057809809
        ]
      }
    },
    {
      "type": "Feature",
      "properties": {
        "norad_id": 40549,
        "name": "BEIDOU-3S IGSO-1S (C31)",
        "group": "beidou",
        "lat": -25.51160618900627,
        "lon": -86.34079054756478,
        "alt_km": 35884.31642187062,
        "timestamp": "2025-12-14T05:42:18.724852+00:00",
        "meta_object_name": "BEIDOU-3S IGSO-1S (C31)",
        "meta_object_id": "2015-019A",
        "meta_epoch": "2025-12-11T20:45:03.352032",
        "meta_mean_motion": 1.00292963,
        "meta_eccentricity": 0.0036964,
        "meta_inclination": 49.5542,
        "meta_ra_of_asc_node": 297.7211,
        "meta_arg_of_pericenter": 195.3449,
        "meta_mean_anomaly": 352.9961,
        "meta_ephemeris_type": 0,
        "meta_classification_type": "U",
        "meta_norad_cat_id": 40549,
        "meta_element_set_no": 999,
        "meta_rev_at_epoch": 3919,
        "meta_bstar": 0,
        "meta_mean_motion_dot": -1.91e-06,
        "meta_mean_motion_ddot": 0,
        "tle_line1": "1 40549U 15019A   25345.86462213 -.00000191  00000+0  00000+0 0  9999",
        "tle_line2": "2 40549  49.5542 297.7211 0036964 195.3449 352.9961  1.00292963 39194"
      },
      "geometry": {
        "type": "Point",
        "coordinates": [
          -86.34079054756478,
          -25.51160618900627
        ]
      }
    },
    {
      "type": "Feature",
      "properties": {
        "norad_id": 40748,
        "name": "BEIDOU-3S M2S (C58)",
        "group": "beidou",
        "lat": 50.88421187901533,
        "lon": 69.08350811452931,
        "alt_km": 21554.47429668534,
        "timestamp": "2025-12-14T05:42:18.724863+00:00",
        "meta_object_name": "BEIDOU-3S M2S (C58)",
        "meta_object_id": "2015-037A",
        "meta_epoch": "2025-12-11T22:15:26.437248",
        "meta_mean_motion": 1.8622897,
        "meta_eccentricity": 0.00123447,
        "meta_inclination": 55.0397,
        "meta_ra_of_asc_node": 308.4912,
        "meta_arg_of_pericenter": 267.8245,
        "meta_mean_anomaly": 92.025,
        "meta_ephemeris_type": 0,
        "meta_classification_type": "U",
        "meta_norad_cat_id": 40748,
        "meta_element_set_no": 999,
        "meta_rev_at_epoch": 7063,
        "meta_bstar": 0,
        "meta_mean_motion_dot": -8.9e-07,
        "meta_mean_motion_ddot": 0,
        "tle_line1": "1 40748U 15037A   25345.92738932 -.00000089  00000+0  00000+0 0  9997",
        "tle_line2": "2 40748  55.0397 308.4912 0012344 267.8245  92.0250  1.86228970 70636"
      },
      "geometry": {
        "type": "Point",
        "coordinates": [
          69.08350811452931,
          50.88421187901533
        ]
      }
    },
    {
      "type": "Feature",
      "properties": {
        "norad_id": 40749,
        "name": "BEIDOU-3S M1S (C57)",
        "group": "beidou",
        "lat": -35.60357079321817,
        "lon": -81.66639327765775,
        "alt_km": 21523.154077318013,
        "timestamp": "2025-12-14T05:42:18.724875+00:00",
        "meta_object_name": "BEIDOU-3S M1S (C57)",
        "meta_object_id": "2015-037B",
        "meta_epoch": "2025-12-11T14:53:54.000096",
        "meta_mean_motion": 1.86253918,
        "meta_eccentricity": 0.00034406,
        "meta_inclination": 55.0364,
        "meta_ra_of_asc_node": 308.4915,
        "meta_arg_of_pericenter": 358.1692,
        "meta_mean_anomaly": 1.8205,
        "meta_ephemeris_type": 0,
        "meta_classification_type": "U",
        "meta_norad_cat_id": 40749,
        "meta_element_set_no": 999,
        "meta_rev_at_epoch": 7063,
        "meta_bstar": 0,
        "meta_mean_motion_dot": -8.8e-07,
        "meta_mean_motion_ddot": 0,
        "tle_line1": "1 40749U 15037B   25345.62076389 -.00000088  00000+0  00000+0 0  9995",
        "tle_line2": "2 40749  55.0364 308.4915 0003440 358.1692   1.8205  1.86253918 70639"
      },
      "geometry": {
        "type": "Point",
        "coordinates": [
          -81.66639327765775,
          -35.60357079321817
        ]
      }
    }
  ]
}